{
  "type": "FeatureCollection",
  "features": [
    {
      "type": "Feature",
      "properties": {
        "norad_id": 58647,
        "name": "TIANMU-1 13",
        "group": "weather",
        "lat": 59.44053902125791,
        "lon": -164.18212480509735,
        "alt_km": 490.6748458211632,
        "timestamp": "2025-12-09T11:33:54.443286+00:00",
        "meta_object_name": "TIANMU-1 13",
        "meta_object_id": "2023-205C",
        "meta_epoch": "2025-12-09T04:44:24.602208",
        "meta_mean_motion": 15.24454617,
        "meta_eccentricity": 0.0006068,
        "meta_inclination": 97.3623,
        "meta_ra_of_asc_node": 2.889,
        "meta_arg_of_pericenter": 283.4289,
        "meta_mean_anomaly": 76.6272,
        "meta_ephemeris_type": 0,
        "meta_classification_type": "U",
        "meta_norad_cat_id": 58647,
        "meta_element_set_no": 999,
        "meta_rev_at_epoch": 10853,
        "meta_bstar": 0.00033355,
        "meta_mean_motion_dot": 8.124e-05,
        "meta_mean_motion_ddot": 0,
        "tle_line1": "1 58647U 23205C   25343.19750697  .00008124  00000+0  33355-3 0  9999",
        "tle_line2": "2 58647  97.3623   2.8890 0006068 283.4289  76.6272 15.24454617108531"
      },
      "geometry": {
        "type": "Point",
        "coordinates": [
          -164.18212480509735,
          59.44053902125791
        ]
      }
    },
    {
      "type": "Feature",
      "properties": {
        "norad_id": 58648,
        "name": "TIANMU-1 14",
        "group": "weather",
        "lat": -30.695398617067283,
        "lon": 178.12195944691666,
        "alt_km": 497.4488628211293,
        "timestamp": "2025-12-09T11:33:54.443303+00:00",
        "meta_object_name": "TIANMU-1 14",
        "meta_object_id": "2023-205D",
        "meta_epoch": "2025-12-09T04:20:26.901024",
        "meta_mean_motion": 15.24438169,
        "meta_eccentricity": 0.0006933,
        "meta_inclination": 97.3555,
        "meta_ra_of_asc_node": 2.2246,
        "meta_arg_of_pericenter": 288.6906,
        "meta_mean_anomaly": 71.3578,
        "meta_ephemeris_type": 0,
        "meta_classification_type": "U",
        "meta_norad_cat_id": 58648,
        "meta_element_set_no": 999,
        "meta_rev_at_epoch": 10853,
        "meta_bstar": 0.00031237,
        "meta_mean_motion_dot": 7.601e-05,
        "meta_mean_motion_ddot": 0,
        "tle_line1": "1 58648U 23205D   25343.18086691  .00007601  00000+0  31237-3 0  9991",
        "tle_line2": "2 58648  97.3555   2.2246 0006933 288.6906  71.3578 15.24438169108534"
      },
      "geometry": {
        "type": "Point",
        "coordinates": [
          178.12195944691666,
          -30.695398617067283
        ]
      }
    },
    {
      "type": "Feature",
      "properties": {
        "norad_id": 58660,
        "name": "TIANMU-1 19",
        "group": "weather",
        "lat": 65.74223032215166,
        "lon": 77.6704405900598,
        "alt_km": 478.73993776885436,
        "timestamp": "2025-12-09T11:33:54.443319+00:00",
        "meta_object_name": "TIANMU-1 19",
        "meta_object_id": "2023-208A",
        "meta_epoch": "2025-12-09T03:24:49.372704",
        "meta_mean_motion": 15.27745777,
        "meta_eccentricity": 0.0004054,
        "meta_inclination": 97.4391,
        "meta_ra_of_asc_node": 94.1869,
        "meta_arg_of_pericenter": 269.1585,
        "meta_mean_anomaly": 90.9189,
        "meta_ephemeris_type": 0,
        "meta_classification_type": "U",
        "meta_norad_cat_id": 58660,
        "meta_element_set_no": 999,
        "meta_rev_at_epoch": 10827,
        "meta_bstar": 0.00045733,
        "meta_mean_motion_dot": 0.00012332,
        "meta_mean_motion_ddot": 0,
        "tle_line1": "1 58660U 23208A   25343.14223811  .00012332  00000+0  45733-3 0  9994",
        "tle_line2": "2 58660  97.4391  94.1869 0004054 269.1585  90.9189 15.27745777108272"
      },
      "geometry": {
        "type": "Point",
        "coordinates": [
          77.6704405900598,
          65.74223032215166
        ]
      }
    },
    {
      "type": "Feature",
      "properties": {
        "norad_id": 58661,
        "name": "TIANMU-1 20",
        "group": "weather",
        "lat": 52.16793450699663,
        "lon": -75.35185124367406,
        "alt_km": 478.0143539649398,
        "timestamp": "2025-12-09T11:33:54.443360+00:00",
        "meta_object_name": "TIANMU-1 20",
        "meta_object_id": "2023-208B",
        "meta_epoch": "2025-12-09T04:43:39.425376",
        "meta_mean_motion": 15.2893878,
        "meta_eccentricity": 0.0006332,
        "meta_inclination": 97.4328,
        "meta_ra_of_asc_node": 94.6856,
        "meta_arg_of_pericenter": 280.8409,
        "meta_mean_anomaly": 79.2118,
        "meta_ephemeris_type": 0,
        "meta_classification_type": "U",
        "meta_norad_cat_id": 58661,
        "meta_element_set_no": 999,
        "meta_rev_at_epoch": 10835,
        "meta_bstar": 0.00044875,
        "meta_mean_motion_dot": 0.00012553,
        "meta_mean_motion_ddot": 0,
        "tle_line1": "1 58661U 23208B   25343.19698409  .00012553  00000+0  44875-3 0  9990",
        "tle_line2": "2 58661  97.4328  94.6856 0006332 280.8409  79.2118 15.28938780108350"
      },
      "geometry": {
        "type": "Point",
        "coordinates": [
          -75.35185124367406,
          52.16793450699663
        ]
      }
    },
    {
      "type": "Feature",
      "properties": {
        "norad_id": 58662,
        "name": "TIANMU-1 21",
        "group": "weather",
        "lat": 75.4088497954347,
        "lon": -53.01370579149354,
        "alt_km": 468.3724889526975,
        "timestamp": "2025-12-09T11:33:54.443378+00:00",
        "meta_object_name": "TIANMU-1 21",
        "meta_object_id": "2023-208C",
        "meta_epoch": "2025-12-09T04:50:45.215808",
        "meta_mean_motion": 15.31431325,
        "meta_eccentricity": 0.0005896,
        "meta_inclination": 97.4377,
        "meta_ra_of_asc_node": 96.5832,
        "meta_arg_of_pericenter": 275.1226,
        "meta_mean_anomaly": 84.9342,
        "meta_ephemeris_type": 0,
        "meta_classification_type": "U",
        "meta_norad_cat_id": 58662,
        "meta_element_set_no": 999,
        "meta_rev_at_epoch": 10845,
        "meta_bstar": 0.00047365,
        "meta_mean_motion_dot": 0.00014317,
        "meta_mean_motion_ddot": 0,
        "tle_line1": "1 58662U 23208C   25343.20191222  .00014317  00000+0  47365-3 0  9991",
        "tle_line2": "2 58662  97.4377  96.5832 0005896 275.1226  84.9342 15.31431325108458"
      },
      "geometry": {
        "type": "Point",
        "coordinates": [
          -53.01370579149354,
          75.4088497954347
        ]
      }
    },
    {
      "type": "Feature",
      "properties": {
        "norad_id": 58663,
        "name": "TIANMU-1 22",
        "group": "weather",
        "lat": 69.55570931964404,
        "lon": 74.06963506891051,
        "alt_km": 477.6851784818746,
        "timestamp": "2025-12-09T11:33:54.443395+00:00",
        "meta_object_name": "TIANMU-1 22",
        "meta_object_id": "2023-208D",
        "meta_epoch": "2025-12-09T04:58:01.470144",
        "meta_mean_motion": 15.27508847,
        "meta_eccentricity": 0.0002797,
        "meta_inclination": 97.4384,
        "meta_ra_of_asc_node": 94.3121,
        "meta_arg_of_pericenter": 304.5458,
        "meta_mean_anomaly": 55.5517,
        "meta_ephemeris_type": 0,
        "meta_classification_type": "U",
        "meta_norad_cat_id": 58663,
        "meta_element_set_no": 999,
        "meta_rev_at_epoch": 10829,
        "meta_bstar": 0.0004225,
        "meta_mean_motion_dot": 0.00011303,
        "meta_mean_motion_ddot": 0,
        "tle_line1": "1 58663U 23208D   25343.20696146  .00011303  00000+0  42250-3 0  9997",
        "tle_line2": "2 58663  97.4384  94.3121 0002797 304.5458  55.5517 15.27508847108294"
      },
      "geometry": {
        "type": "Point",
        "coordinates": [
          74.06963506891051,
          69.55570931964404
        ]
      }
    },
    {
      "type": "Feature",
      "properties": {
        "norad_id": 58700,
        "name": "TIANMU-1 15",
        "group": "weather",
        "lat": -53.80525303828126,
        "lon": -25.356341898033122,
        "alt_km": 498.2381023387288,
        "timestamp": "2025-12-09T11:33:54.443413+00:00",
        "meta_object_name": "TIANMU-1 15",
        "meta_object_id": "2024-004A",
        "meta_epoch": "2025-12-09T04:14:19.827168",
        "meta_mean_motion": 15.246053,
        "meta_eccentricity": 0.0005348,
        "meta_inclination": 97.463,
        "meta_ra_of_asc_node": 164.6594,
        "meta_arg_of_pericenter": 313.4712,
        "meta_mean_anomaly": 46.6081,
        "meta_ephemeris_type": 0,
        "meta_classification_type": "U",
        "meta_norad_cat_id": 58700,
        "meta_element_set_no": 999,
        "meta_rev_at_epoch": 10680,
        "meta_bstar": 0.00036908,
        "meta_mean_motion_dot": 9.036e-05,
        "meta_mean_motion_ddot": 0,
        "tle_line1": "1 58700U 24004A   25343.17661837  .00009036  00000+0  36908-3 0  9992",
        "tle_line2": "2 58700  97.4630 164.6594 0005348 313.4712  46.6081 15.24605300106803"
      },
      "geometry": {
        "type": "Point",
        "coordinates": [
          -25.356341898033122,
          -53.80525303828126
        ]
      }
    }
  ]
}